{
  "type": "FeatureCollection",
  "features": [
    {
      "type": "Feature",
      "properties": {
        "layer": "shelf",
        "name": "Continental Shelf",
        "desc": "Shallow maritime bathymetric waters in the blue ocean"
      },
      "geometry": {
        "type": "Polygon",
        "coordinates": [
          [
            [
              30.424,
              20.0
            ],
            [
              30.42881,
              20.05293
            ],
            [
              30.40451,
              20.10306
            ],
            [
              30.36305,
              20.14673
            ],
            [
              30.31568,
              20.18542
            ],
            [
              30.26469,
              20.22082
            ],
            [
              30.206,
              20.24976
            ],
            [
              30.13805,
              20.26551
            ],
            [
              30.06664,
              20.26454
            ],
            [
              30.0,
              20.252
            ],
            [
              29.93975,
              20.23919
            ],
            [
              29.87812,
              20.23441
            ],
            [
              29.806,
              20.23521
            ],
            [
              29.72475,
              20.22962
            ],
            [
              29.64977,
              20.20571
            ],
            [
              29.60095,
              20.16127
            ],
            [
              29.58765,
              20.10506
            ],
            [
              29.60157,
              20.04918
            ],
            [
              29.624,
              20.0
            ],
            [
              29.64097,
              19.95568
            ],
            [
              29.65276,
              19.91153
            ],
            [
              29.67023,
              19.86673
            ],
            [
              29.70284,
              19.82546
            ],
            [
              29.75046,
              19.79183
            ],
            [
              29.806,
              19.76479
            ],
            [
              29.86444,
              19.73928
            ],
            [
              29.92772,
              19.71305
            ],
            [
              30.0,
              19.692
            ],
            [
              30.07867,
              19.6877
            ],
            [
              30.15173,
              19.70818
            ],
            [
              30.206,
              19.75024
            ],
            [
              30.23898,
              19.80063
            ],
            [
              30.2626,
              19.84575
            ],
            [
              30.29377,
              19.88127
            ],
            [
              30.33941,
              19.91353
            ],
            [
              30.38942,
              19.95193
            ],
            [
              30.424,
              20.0
            ]
          ]
        ]
      }
    },
    {
      "type": "Feature",
      "properties": {
        "layer": "island_base",
        "name": "Avalon Island Coastline",
        "desc": "Island perimeter and coastal beaches"
      },
      "geometry": {
        "type": "Polygon",
        "coordinates": [
          [
            [
              30.33217,
              20.0
            ],
            [
              30.33546,
              20.04673
            ],
            [
              30.29917,
              20.08737
            ],
            [
              30.24498,
              20.11709
            ],
            [
              30.19321,
              20.14031
            ],
            [
              30.14897,
              20.16302
            ],
            [
              30.10483,
              20.18437
            ],
            [
              30.05426,
              20.19694
            ],
            [
              30.00017,
              20.19559
            ],
            [
              29.95,
              20.18525
            ],
            [
              29.90423,
              20.17844
            ],
            [
              29.85266,
              20.18387
            ],
            [
              29.78483,
              20.19668
            ],
            [
              29.70509,
              20.20066
            ],
            [
              29.63588,
              20.18121
            ],
            [
              29.60318,
              20.13766
            ],
            [
              29.6155,
              20.0837
            ],
            [
              29.6554,
              20.03571
            ],
            [
              29.69217,
              20.0
            ],
            [
              29.70518,
              19.97032
            ],
            [
              29.69777,
              19.93688
            ],
            [
              29.69073,
              19.89709
            ],
            [
              29.70295,
              19.85748
            ],
            [
              29.73758,
              19.82596
            ],
            [
              29.78483,
              19.80332
            ],
            [
              29.83537,
              19.78348
            ],
            [
              29.88903,
              19.76228
            ],
            [
              29.95,
              19.74525
            ],
            [
              30.01537,
              19.74513
            ],
            [
              30.07155,
              19.7704
            ],
            [
              30.10483,
              19.81563
            ],
            [
              30.11648,
              19.8636
            ],
            [
              30.12614,
              19.89839
            ],
            [
              30.15743,
              19.91766
            ],
            [
              30.2169,
              19.93321
            ],
            [
              30.28568,
              19.95931
            ],
            [
              30.33217,
              20.0
            ]
          ]
        ]
      }
    },
    {
      "type": "Feature",
      "properties": {
        "layer": "biome_park",
        "biome": "park",
        "name": "Emerald Nature Reserve",
        "color": "#16a34a",
        "desc": "Lush river basin, temperate woodlands, and wildlife reserve"
      },
      "geometry": {
        "type": "Polygon",
        "coordinates": [
          [
            [
              29.85266,
              20.18387
            ],
            [
              29.78483,
              20.19668
            ],
            [
              29.70509,
              20.20066
            ],
            [
              29.63588,
              20.18121
            ],
            [
              29.60318,
              20.13766
            ],
            [
              29.6155,
              20.0837
            ],
            [
              29.6554,
              20.03571
            ],
            [
              29.69217,
              20.0
            ],
            [
              29.70518,
              19.97032
            ],
            [
              29.69777,
              19.93688
            ],
            [
              29.69073,
              19.89709
            ],
            [
              29.70295,
              19.85748
            ],
            [
              29.73758,
              19.82596
            ],
            [
              29.78483,
              19.80332
            ],
            [
              29.88111,
              19.94583
            ],
            [
              29.87281,
              19.97358
            ],
            [
              29.88891,
              20.00169
            ],
            [
              29.89677,
              20.02
            ],
            [
              29.87703,
              20.04069
            ],
            [
              29.85775,
              20.07294
            ],
            [
              29.85266,
              20.18387
            ]
          ]
        ]
      }
    },
    {
      "type": "Feature",
      "properties": {
        "layer": "biome_city",
        "biome": "city",
        "name": "Metropolitan City District",
        "color": "#9b4d4d",
        "desc": "Civic harbor, commercial waterfront, and urban center"
      },
      "geometry": {
        "type": "Polygon",
        "coordinates": [
          [
            [
              29.85266,
              20.18387
            ],
            [
              29.85775,
              20.07294
            ],
            [
              29.87241,
              20.10069
            ],
            [
              29.91242,
              20.10779
            ],
            [
              29.95004,
              20.10386
            ],
            [
              29.98,
              20.10348
            ],
            [
              30.00897,
              20.1011
            ],
            [
              30.03242,
              20.08809
            ],
            [
              30.05082,
              20.07311
            ],
            [
              30.08065,
              20.06358
            ],
            [
              30.12073,
              20.04828
            ],
            [
              30.13677,
              20.02
            ],
            [
              30.33217,
              20.0
            ],
            [
              30.33546,
              20.04673
            ],
            [
              30.29917,
              20.08737
            ],
            [
              30.24498,
              20.11709
            ],
            [
              30.19321,
              20.14031
            ],
            [
              30.14897,
              20.16302
            ],
            [
              30.10483,
              20.18437
            ],
            [
              30.05426,
              20.19694
            ],
            [
              30.00017,
              20.19559
            ],
            [
              29.95,
              20.18525
            ],
            [
              29.90423,
              20.17844
            ],
            [
              29.85266,
              20.18387
            ]
          ]
        ]
      }
    },
    {
      "type": "Feature",
      "properties": {
        "layer": "biome_desert",
        "biome": "desert",
        "name": "Avalon Desert Dunes",
        "color": "#ea580c",
        "desc": "Sun-drenched arid plains and coastal dunes"
      },
      "geometry": {
        "type": "Polygon",
        "coordinates": [
          [
            [
              29.78483,
              19.80332
            ],
            [
              29.83537,
              19.78348
            ],
            [
              29.88903,
              19.76228
            ],
            [
              29.95,
              19.74525
            ],
            [
              30.01537,
              19.74513
            ],
            [
              30.07155,
              19.7704
            ],
            [
              30.10483,
              19.81563
            ],
            [
              30.11648,
              19.8636
            ],
            [
              30.12614,
              19.89839
            ],
            [
              30.15743,
              19.91766
            ],
            [
              30.2169,
              19.93321
            ],
            [
              30.28568,
              19.95931
            ],
            [
              30.33217,
              20.0
            ],
            [
              30.13677,
              20.02
            ],
            [
              30.10885,
              19.99411
            ],
            [
              30.06559,
              19.98294
            ],
            [
              30.04212,
              19.97341
            ],
            [
              30.03242,
              19.95191
            ],
            [
              30.01216,
              19.92999
            ],
            [
              29.98,
              19.92348
            ],
            [
              29.94686,
              19.92723
            ],
            [
              29.91242,
              19.93221
            ],
            [
              29.88111,
              19.94583
            ],
            [
              29.78483,
              19.80332
            ]
          ]
        ]
      }
    },
    {
      "type": "Feature",
      "properties": {
        "layer": "biome_mountains",
        "biome": "mountains",
        "name": "White Mountain Ridge",
        "color": "#ffffff",
        "desc": "Alpine peaks, rocky ridges, and snowcapped summits"
      },
      "geometry": {
        "type": "Polygon",
        "coordinates": [
          [
            [
              30.13677,
              20.02
            ],
            [
              30.12073,
              20.04828
            ],
            [
              30.08065,
              20.06358
            ],
            [
              30.05082,
              20.07311
            ],
            [
              30.03242,
              20.08809
            ],
            [
              30.00897,
              20.1011
            ],
            [
              29.98,
              20.10348
            ],
            [
              29.95004,
              20.10386
            ],
            [
              29.91242,
              20.10779
            ],
            [
              29.87241,
              20.10069
            ],
            [
              29.85775,
              20.07294
            ],
            [
              29.87703,
              20.04069
            ],
            [
              29.89677,
              20.02
            ],
            [
              29.88891,
              20.00169
            ],
            [
              29.87281,
              19.97358
            ],
            [
              29.88111,
              19.94583
            ],
            [
              29.91242,
              19.93221
            ],
            [
              29.94686,
              19.92723
            ],
            [
              29.98,
              19.92348
            ],
            [
              30.01216,
              19.92999
            ],
            [
              30.03242,
              19.95191
            ],
            [
              30.04212,
              19.97341
            ],
            [
              30.06559,
              19.98294
            ],
            [
              30.10885,
              19.99411
            ],
            [
              30.13677,
              20.02
            ]
          ]
        ]
      }
    },
    {
      "type": "Feature",
      "properties": {
        "layer": "satellite",
        "name": "Eastern Archipelago",
        "desc": "Offshore maritime satellite islands"
      },
      "geometry": {
        "type": "Polygon",
        "coordinates": [
          [
            [
              30.44975,
              20.05
            ],
            [
              30.43226,
              20.07197
            ],
            [
              30.40596,
              20.08385
            ],
            [
              30.39036,
              20.09476
            ],
            [
              30.3812,
              20.11343
            ],
            [
              30.36443,
              20.13105
            ],
            [
              30.34,
              20.13606
            ],
            [
              30.31535,
              20.13177
            ],
            [
              30.2912,
              20.12514
            ],
            [
              30.26989,
              20.11232
            ],
            [
              30.26189,
              20.09009
            ],
            [
              30.26771,
              20.06722
            ],
            [
              30.26975,
              20.05
            ],
            [
              30.2584,
              20.03056
            ],
            [
              30.25008,
              20.00385
            ],
            [
              30.26308,
              19.98162
            ],
            [
              30.2912,
              19.97486
            ],
            [
              30.31785,
              19.97651
            ],
            [
              30.34,
              19.97606
            ],
            [
              30.36194,
              19.97722
            ],
            [
              30.3812,
              19.98657
            ],
            [
              30.39717,
              19.99918
            ],
            [
              30.41777,
              20.01009
            ],
            [
              30.44157,
              20.02581
            ],
            [
              30.44975,
              20.05
            ]
          ]
        ]
      }
    },
    {
      "type": "Feature",
      "properties": {
        "layer": "satellite",
        "name": "South Sound Islet",
        "desc": "Southern coastal inlet islet"
      },
      "geometry": {
        "type": "Polygon",
        "coordinates": [
          [
            [
              30.18534,
              19.8
            ],
            [
              30.17215,
              19.81412
            ],
            [
              30.15931,
              19.8238
            ],
            [
              30.1534,
              19.83831
            ],
            [
              30.14092,
              19.85365
            ],
            [
              30.12,
              19.85594
            ],
            [
              30.10125,
              19.8481
            ],
            [
              30.08546,
              19.83962
            ],
            [
              30.07319,
              19.82834
            ],
            [
              30.06899,
              19.81381
            ],
            [
              30.06534,
              19.8
            ],
            [
              30.05802,
              19.78322
            ],
            [
              30.06223,
              19.76502
            ],
            [
              30.08287,
              19.75741
            ],
            [
              30.10383,
              19.75854
            ],
            [
              30.12,
              19.75594
            ],
            [
              30.13833,
              19.753
            ],
            [
              30.15599,
              19.75872
            ],
            [
              30.17028,
              19.76956
            ],
            [
              30.18312,
              19.78291
            ],
            [
              30.18534,
              19.8
            ]
          ]
        ]
      }
    }
  ]
}